#dP2024  3  8  0  0  0.00000000      96 __u+U IGS20 FIT  IAC
## 2304 432000.00000000   900.00000000 60377 0.0000000000000
+  131   C01C02C03C04C05C06C07C08C09C10C11C12C13C14C16C19C20
+        C21C22C23C24C25C26C27C28C29C30C32C33C34C35C36C37C38
+        C39C40C41C42C43C44C45C46C59C60C62E02E03E04E05E07E08
+        E09E10E11E12E13E14E15E18E19E21E24E25E26E27E30E31E33
+        E34E36G01G02G03G04G05G06G07G08G09G10G11G12G13G14G15
+        G16G17G18G19G20G21G22G23G24G25G26G27G28G29G30G31G32
+        J02J03J04J07R01R02R03R04R05R06R07R08R09R10R11R12R13
+        R14R15R16R17R18R19R20R21R22R23R24R25  0  0  0  0  0
++        17 17 17 17 17 10 10 10  9  9  9  9  9  9 10  7  7
++         7  7  0  7  7  7  8  8  7  7  8  8  7  8  7  8  9
++         9  0  8  8  8  7  7  8  0 17  0  4  4  5  5  4  4
++         5  5  5  5  4  4  5  5  5  5  4  4  4  4  5  5  4
++         5  6  5  4  4  4  4  4  4  4  4  4  4  4  5  4  5
++         4  4  4  4  4  4  4  5  5  4  4  4  4  4  4  4  4
++        11 11 11 17  7  6  6  6  6 16  6  6  6 15  6  6  7
++         6  6  6  6  6  7  7  6  6 15  6 17  0  0  0  0  0
%c M  cc GPS ccc cccc cccc cccc cccc ccccc ccccc ccccc ccccc
%c cc cc ccc ccc cccc cccc cccc cccc ccccc ccccc ccccc ccccc
%f  0.0000000  0.000000000  0.00000000000  0.000000000000000
%f  0.0000000  0.000000000  0.00000000000  0.000000000000000
%i    0    0    0    0      0      0      0      0         0
%i    0    0    0    0      0      0      0      0         0
/* INFORMATION & ANALYSIS CENTER (IAC)            RAPID DATA
/* S/V CLOCKS ARE ALIGNED TO GNSS TIME                      
/* G:C1WC2W R:C1PC2P E:C1XC5X C:C2IC6I J:C1CC2S             
/* PCV:IGS20_2290 OL/AL:FES2004  NONE     YN ORB:CoN CLK:CoN
*  2024 03 08 14 15  0.00000000
PC01 -34290.663831  24499.006039   1253.191183    887.071776
PC02   4333.396219  41931.022612    658.140101    493.675683
PC03 -14788.374937  39477.479483   1082.333347     35.820333
PC04 -39602.753498  14433.706166   1092.935018    776.590812
PC05  21824.460877  36101.817455    202.302051   -847.095925
PC06 -18454.047905  30002.598023 -23347.677270    259.210761
PC07  -6600.932424  39055.000535 -14062.725649   -922.945158
PC08  -3206.281880  20963.755634  36459.555352    -20.675582
PC09 -12034.824204  28786.140650 -28191.767611 999999.999999
PC10   -233.893236  41138.439258  -7453.568327     53.824397
PC11  21100.263712  -6199.584552  17248.047087    449.287998
PC12  10189.442291  11793.778855  23185.595022   -208.767297
PC13   5314.373379  25085.084452  33702.588083    423.352141
PC14  17014.299630   3459.800457 -21815.008900    359.279372
PC16 -22163.853191  29420.248161 -20540.337194   -384.104441
PC19 -13982.733264   7186.122674  23084.469152   -920.727345
PC20 -17411.499504 -12041.605139  18215.978972   -236.499150
PC21  10512.167184  25772.921636  -1760.040219   -961.391911
PC22  -2331.235293  23437.552895  14947.184874    -82.334225
PC23      0.000000      0.000000      0.000000 999999.999999
PC24  25777.965242   8942.679794  -5936.246742    953.036375
PC25  24996.679132  -4573.772717  11540.770950    344.474941
PC26  12063.559719  16022.832124 -19437.532381   -259.859193
PC27  -3004.168750 -18615.607703 -20586.936853    281.786750
PC28  11761.719365 -23577.668923  -9183.717901    214.782835
PC29 -21139.873085  15022.634014 -10318.833994 999999.999999
PC30 -16900.856543  -3500.814468 -21942.389608 999999.999999
PC32 -10712.988197 -25721.725736   1725.378103   -579.545120
PC33  13968.507404  -7225.712633 -23044.360357   -955.582132
PC34  17735.455104   1988.934159  21433.998621    385.653500
PC35 -10992.096325  24038.031405   9000.450476    416.034844
PC36 -25265.456324   3739.235972 -11218.516976 999999.999999
PC37 -11235.308780 -16342.616911  19626.350474   -942.560615
PC38 -12249.944159  19238.613093  35507.631407    141.461942
PC39 -25604.813576  30075.269115 -15010.500409     -7.473675
PC40      0.000000      0.000000      0.000000 999999.999999
PC41   2790.018015 -23021.180476 -15476.473792   -902.158617
PC42  17299.682941  13595.164393 -17098.472847   -448.431955
PC43  21290.306036 -14217.944386  11063.292287     63.337366
PC44   3613.175461  18712.233517  20381.200436    407.097263
PC45  -9925.660101  14124.715406 -21929.669561    -74.499657
PC46 -26083.937281  -8436.110305   5093.154652 999999.999999
PC59      0.000000      0.000000      0.000000 999999.999999
PC60   7285.581740  41507.124436   1551.219852     -0.388577
PC62      0.000000      0.000000      0.000000 999999.999999
PE02  -2190.650397  19333.394874 -22324.174520    109.526052
PE03  -8506.486493  28254.736983   2271.875380    -98.874359
PE04  -5316.594906 -24535.613973  15694.317538   -344.842646
PE05 -17124.017320  15402.630456  18600.127251   4727.132896
PE07  15652.160374   6978.957144 -24124.641316   -107.777431
PE08   4728.055605  24955.534429 -15187.947140   -235.663185
PE09 -15478.195442  -7093.187316  24220.450304   -363.061518
PE10 -18519.634330  -8828.363229 -21342.401012   -607.717930
PE11 -25971.991453  -1931.434962 -14096.679960   3190.397743
PE12  -9184.193074 -13819.830920 -24515.913692   -939.329459
PE13  25596.088735   2330.438253  14674.792654    -20.454582
PE14  14397.782031 -25189.922459   8295.313648     60.633149
PE15   8526.755342  13989.922508  24658.467134    -90.051682
PE18 -17256.312744  13512.715978 -14948.532972 999999.999999
PE19   9927.996372 -27541.955680  -4345.496620   -471.888967
PE21  18191.210079  -4457.735180  22912.732869   -582.876842
PE24 -24187.631371 -13933.104774  -9836.017494 999999.999999
PE25 -18439.627460   4100.973217 -22790.345915      1.851932
PE26  27193.249102 -10854.787822  -4309.563914    390.493576
PE27  24247.449613  13632.342597  10129.946778   -293.543701
PE30  15695.659331  23572.964507  -8656.047011    -73.737707
PE31 -15934.965641 -23460.097545   8464.047357    -17.765046
PE33  13822.011855 -17212.203368 -19713.238094      8.713112
PE34 -13240.407174  17298.044286  20039.146325 999999.999999
PE36 -27433.201520  10502.663279   3724.522408   -196.368042
PG01  -6515.790357 -13367.966151 -22374.991820 999999.999999
PG02   3403.809875 -16343.341462 -20104.840793   -473.605560
PG03  -8533.110883 -20852.733664 -14306.137110    239.680130
PG04    959.850704 -25291.244294   7836.582457 999999.999999
PG05  -3839.290947  15543.937164  21001.273254   -164.625480
PG06 -25831.522105   5415.163501  -3404.423246    376.619861
PG07 -17572.190139  -8496.659924  18714.264243    -79.533580
PG08   5542.072802 -25712.852512    930.356927     39.931462
PG09  -9383.293306 -17186.688767  17839.858027    117.524954
PG10  21679.378247   7954.468718 -13197.332807      0.435656
PG11 -22131.890170  11906.665416   8544.972803   -600.236127
PG12   6125.707599  21424.733577 -14789.670954   -485.220276
PG13 -13565.602963  21322.558332   7584.820085    632.312387
PG14 -21997.100708 -11126.628579 -10114.542892 999999.999999
PG15  -2248.169999  26330.465573    559.469050    135.499256
PG16  10491.977168 -10776.746187  21544.625381   -345.875915
PG17 -14295.821428  -3892.221227 -21623.691819    714.433442
PG18  18198.992763   7363.522025  17989.407206   -571.378652
PG19 -16484.577079   5720.604915 -20100.565221    451.102568
PG20 -15137.769008   7625.633809  20474.084053    384.694979
PG21   8410.025424 -16915.590113 -17766.839287    132.149407
PG22 -19894.274365  -4987.989786 -16288.626330     19.204152
PG23  20982.672952  16317.696997  -2096.137739    172.509555
PG24  -4744.411560  17666.606210 -19533.560419   -443.317019
PG25  15835.210814  20518.692770  -6755.815802    490.743677
PG26  19095.833764  -2326.155300  18308.903885    181.918157
PG27  12665.587124 -19702.695462  11816.599227    -10.207099
PG28  25451.119157  -4308.873855  -6259.796577   -157.063289
PG29   6310.015278  19243.480475  17078.085127   -605.339949
PG30 -24465.487523   -697.353487  10776.338941   -422.571518
PG31  24705.214912  -9677.779255   3401.164579   -227.949922
PG32  15308.801373     81.967063 -21482.212916   -615.057779
PJ02 -22439.709545  19375.576844 -25373.403552     -2.701708
PJ03 -30194.607037  28903.051053  10679.620435     -0.210313
PJ04 -25471.047256  28441.569806  23820.628670 999999.999999
PJ07 -25391.865888  33666.661662    -22.280063 999999.999999
PR01   8662.512800  -9898.380657 -21850.642399     79.138827
PR02   1294.461301 -23193.626444 -10412.014350    -22.561819
PR03  -7230.172959 -23421.921808   7003.546636     95.979792
PR04 -11177.474070 -10973.330214  20163.164482    226.668379
PR05  -9416.050374   7427.383042  22533.330216    128.093068
PR06    172.017531  23754.064707   9314.651914   -153.857056
PR07   7480.246511  23155.870319  -7687.812279     77.493291
PR08  11343.010652  10713.322908 -20124.946681 999999.999999
PR09  -3418.225796  10802.187817 -22838.782405 999999.999999
PR10  12401.868701  13494.462167 -17793.939777   -133.120401
PR11  23629.654658   9413.455778  -1800.844128     31.937169
PR12  19594.229448  -1140.078984  16318.995292     37.565142
PR13   5961.404273  -9554.251462  22867.486473    -45.096080
PR14 -14240.062250 -13526.942428  16292.119260     26.191481
PR15 -23886.273723  -8954.093413    287.295525     81.531789
PR16 -19747.677400    955.716674 -16134.563248 999999.999999
PR17  -1987.479766 -11672.015367 -22590.064244     67.273656
PR18 -15353.329007    460.376160 -20368.477502 999999.999999
PR19 -21228.427525  10667.792132  -9291.817405   -268.615664
PR20 -14676.514223  17353.881716  11638.396378   -109.466742
PR21   2040.932222  11494.969248  22676.761208    -82.920526
PR22  16211.948284   -525.125936  19706.368967    111.759074
PR23  21057.522778 -13138.894152   5850.421855   -114.271575
PR24  13377.604309 -18096.424895 -12000.131964    -46.967919
PR25   1891.579407  11864.166867  22505.126428 999999.999999
EOF
